[
  {
    "OBJECT_NAME": "STARLINK-34949",
    "OBJECT_ID": "25175B",
    "EPOCH": "2025-11-11T04:17:59.965728",
    "MEAN_MOTION": 15.05672841,
    "ECCENTRICITY": 0.0002978,
    "INCLINATION": 97.6016,
    "RA_OF_ASC_NODE": 185.7754,
    "ARG_OF_PERICENTER": 77.6952,
    "MEAN_ANOMALY": 282.4608,
    "EPHEMERIS_TYPE": 0,
    "CLASSIFICATION_TYPE": "U",
    "NORAD_CAT_ID": 65175,
    "ELEMENT_SET_NO": 999,
    "REV_AT_EPOCH": 1481,
    "BSTAR": 0.0007027,
    "MEAN_MOTION_DOT": 0.000101,
    "MEAN_MOTION_DDOT": 0.0,
    "TLE_LINE1": "1 65175U 25175B   25315.17916627  .00010100  00000+0  70270-3 0  9999",
    "TLE_LINE2": "2 65175  97.6016 185.7754 0002978  77.6952 282.4608 15.05672841 14817",
    "COMMENT": "Grouped by shell and plane from TLE"
  },
  {
    "OBJECT_NAME": "STARLINK-34707",
    "OBJECT_ID": "25175C",
    "EPOCH": "2025-11-11T04:13:59.957760",
    "MEAN_MOTION": 15.05658733,
    "ECCENTRICITY": 0.0003181,
    "INCLINATION": 97.6007,
    "RA_OF_ASC_NODE": 185.7786,
    "ARG_OF_PERICENTER": 68.2944,
    "MEAN_ANOMALY": 291.8621,
    "EPHEMERIS_TYPE": 0,
    "CLASSIFICATION_TYPE": "U",
    "NORAD_CAT_ID": 65176,
    "ELEMENT_SET_NO": 999,
    "REV_AT_EPOCH": 1480,
    "BSTAR": 0.00071482,
    "MEAN_MOTION_DOT": 0.00010272,
    "MEAN_MOTION_DDOT": 0.0,
    "TLE_LINE1": "1 65176U 25175C   25315.17638840  .00010272  00000+0  71482-3 0  9994",
    "TLE_LINE2": "2 65176  97.6007 185.7786 0003181  68.2944 291.8621 15.05658733 14809",
    "COMMENT": "Grouped by shell and plane from TLE"
  },
  {
    "OBJECT_NAME": "STARLINK-34967",
    "OBJECT_ID": "25175D",
    "EPOCH": "2025-11-11T05:45:42.886080",
    "MEAN_MOTION": 15.05657755,
    "ECCENTRICITY": 0.0003352,
    "INCLINATION": 97.6012,
    "RA_OF_ASC_NODE": 185.848,
    "ARG_OF_PERICENTER": 87.0074,
    "MEAN_ANOMALY": 273.1537,
    "EPHEMERIS_TYPE": 0,
    "CLASSIFICATION_TYPE": "U",
    "NORAD_CAT_ID": 65177,
    "ELEMENT_SET_NO": 999,
    "REV_AT_EPOCH": 1481,
    "BSTAR": 0.00069383,
    "MEAN_MOTION_DOT": 9.967e-05,
    "MEAN_MOTION_DDOT": 0.0,
    "TLE_LINE1": "1 65177U 25175D   25315.24007970  .00009967  00000+0  69383-3 0  9993",
    "TLE_LINE2": "2 65177  97.6012 185.8480 0003352  87.0074 273.1537 15.05657755 14814",
    "COMMENT": "Grouped by shell and plane from TLE"
  },
  {
    "OBJECT_NAME": "STARLINK-34929",
    "OBJECT_ID": "25175E",
    "EPOCH": "2025-11-11T05:41:43.685088",
    "MEAN_MOTION": 15.05660837,
    "ECCENTRICITY": 0.0003176,
    "INCLINATION": 97.6005,
    "RA_OF_ASC_NODE": 185.8539,
    "ARG_OF_PERICENTER": 88.6812,
    "MEAN_ANOMALY": 271.4778,
    "EPHEMERIS_TYPE": 0,
    "CLASSIFICATION_TYPE": "U",
    "NORAD_CAT_ID": 65178,
    "ELEMENT_SET_NO": 999,
    "REV_AT_EPOCH": 1481,
    "BSTAR": 0.00067712,
    "MEAN_MOTION_DOT": 9.726e-05,
    "MEAN_MOTION_DDOT": 0.0,
    "TLE_LINE1": "1 65178U 25175E   25315.23731117  .00009726  00000+0  67712-3 0  9997",
    "TLE_LINE2": "2 65178  97.6005 185.8539 0003176  88.6812 271.4778 15.05660837 14816",
    "COMMENT": "Grouped by shell and plane from TLE"
  },
  {
    "OBJECT_NAME": "STARLINK-34932",
    "OBJECT_ID": "25175F",
    "EPOCH": "2025-11-11T05:33:45.219168",
    "MEAN_MOTION": 15.05656059,
    "ECCENTRICITY": 0.0003018,
    "INCLINATION": 97.6025,
    "RA_OF_ASC_NODE": 185.8608,
    "ARG_OF_PERICENTER": 88.841,
    "MEAN_ANOMALY": 271.3162,
    "EPHEMERIS_TYPE": 0,
    "CLASSIFICATION_TYPE": "U",
    "NORAD_CAT_ID": 65179,
    "ELEMENT_SET_NO": 999,
    "REV_AT_EPOCH": 1481,
    "BSTAR": 0.00051857,
    "MEAN_MOTION_DOT": 7.431e-05,
    "MEAN_MOTION_DDOT": 0.0,
    "TLE_LINE1": "1 65179U 25175F   25315.23177337  .00007431  00000+0  51857-3 0  9990",
    "TLE_LINE2": "2 65179  97.6025 185.8608 0003018  88.8410 271.3162 15.05656059 14814",
    "COMMENT": "Grouped by shell and plane from TLE"
  },
  {
    "OBJECT_NAME": "STARLINK-34862",
    "OBJECT_ID": "25175G",
    "EPOCH": "2025-11-11T07:05:27.939264",
    "MEAN_MOTION": 15.05653225,
    "ECCENTRICITY": 0.0002968,
    "INCLINATION": 97.6024,
    "RA_OF_ASC_NODE": 185.9304,
    "ARG_OF_PERICENTER": 86.9614,
    "MEAN_ANOMALY": 273.1952,
    "EPHEMERIS_TYPE": 0,
    "CLASSIFICATION_TYPE": "U",
    "NORAD_CAT_ID": 65180,
    "ELEMENT_SET_NO": 999,
    "REV_AT_EPOCH": 1482,
    "BSTAR": 0.00031587,
    "MEAN_MOTION_DOT": 4.5e-05,
    "MEAN_MOTION_DDOT": 0.0,
    "TLE_LINE1": "1 65180U 25175G   25315.29546226  .00004500  00000+0  31587-3 0  9997",
    "TLE_LINE2": "2 65180  97.6024 185.9304 0002968  86.9614 273.1952 15.05653225 14827",
    "COMMENT": "Grouped by shell and plane from TLE"
  },
  {
    "OBJECT_NAME": "STARLINK-34942",
    "OBJECT_ID": "25175H",
    "EPOCH": "2025-11-11T05:37:42.937536",
    "MEAN_MOTION": 15.05710731,
    "ECCENTRICITY": 0.0002831,
    "INCLINATION": 97.6022,
    "RA_OF_ASC_NODE": 185.8586,
    "ARG_OF_PERICENTER": 91.3325,
    "MEAN_ANOMALY": 268.8227,
    "EPHEMERIS_TYPE": 0,
    "CLASSIFICATION_TYPE": "U",
    "NORAD_CAT_ID": 65181,
    "ELEMENT_SET_NO": 999,
    "REV_AT_EPOCH": 1478,
    "BSTAR": 0.002235,
    "MEAN_MOTION_DOT": 0.0003239,
    "MEAN_MOTION_DDOT": 0.0,
    "TLE_LINE1": "1 65181U 25175H   25315.23452474  .00032390  00000+0  22350-2 0  9998",
    "TLE_LINE2": "2 65181  97.6022 185.8586 0002831  91.3325 268.8227 15.05710731 14782",
    "COMMENT": "Grouped by shell and plane from TLE"
  },
  {
    "OBJECT_NAME": "STARLINK-34944",
    "OBJECT_ID": "25175J",
    "EPOCH": "2025-11-11T05:25:46.583904",
    "MEAN_MOTION": 15.05657115,
    "ECCENTRICITY": 0.0002483,
    "INCLINATION": 97.6018,
    "RA_OF_ASC_NODE": 185.8688,
    "ARG_OF_PERICENTER": 89.5013,
    "MEAN_ANOMALY": 270.6499,
    "EPHEMERIS_TYPE": 0,
    "CLASSIFICATION_TYPE": "U",
    "NORAD_CAT_ID": 65182,
    "ELEMENT_SET_NO": 999,
    "REV_AT_EPOCH": 1481,
    "BSTAR": 0.00054404,
    "MEAN_MOTION_DOT": 7.8e-05,
    "MEAN_MOTION_DDOT": 0.0,
    "TLE_LINE1": "1 65182U 25175J   25315.22623361  .00007800  00000+0  54404-3 0  9997",
    "TLE_LINE2": "2 65182  97.6018 185.8688 0002483  89.5013 270.6499 15.05657115 14819",
    "COMMENT": "Grouped by shell and plane from TLE"
  },
  {
    "OBJECT_NAME": "STARLINK-34939",
    "OBJECT_ID": "25175K",
    "EPOCH": "2025-11-11T05:21:47.404512",
    "MEAN_MOTION": 15.0567402,
    "ECCENTRICITY": 0.000262,
    "INCLINATION": 97.5989,
    "RA_OF_ASC_NODE": 185.8726,
    "ARG_OF_PERICENTER": 97.7573,
    "MEAN_ANOMALY": 262.3952,
    "EPHEMERIS_TYPE": 0,
    "CLASSIFICATION_TYPE": "U",
    "NORAD_CAT_ID": 65183,
    "ELEMENT_SET_NO": 999,
    "REV_AT_EPOCH": 1478,
    "BSTAR": 0.001291,
    "MEAN_MOTION_DOT": 0.0001863,
    "MEAN_MOTION_DDOT": 0.0,
    "TLE_LINE1": "1 65183U 25175K   25315.22346533  .00018630  00000+0  12910-2 0  9999",
    "TLE_LINE2": "2 65183  97.5989 185.8726 0002620  97.7573 262.3952 15.05674020 14786",
    "COMMENT": "Grouped by shell and plane from TLE"
  },
  {
    "OBJECT_NAME": "STARLINK-34947",
    "OBJECT_ID": "25175L",
    "EPOCH": "2025-11-11T05:17:48.112800",
    "MEAN_MOTION": 15.05661199,
    "ECCENTRICITY": 0.000228,
    "INCLINATION": 97.6005,
    "RA_OF_ASC_NODE": 185.8766,
    "ARG_OF_PERICENTER": 92.1256,
    "MEAN_ANOMALY": 268.0232,
    "EPHEMERIS_TYPE": 0,
    "CLASSIFICATION_TYPE": "U",
    "NORAD_CAT_ID": 65184,
    "ELEMENT_SET_NO": 999,
    "REV_AT_EPOCH": 1481,
    "BSTAR": 0.00049306,
    "MEAN_MOTION_DOT": 7.063e-05,
    "MEAN_MOTION_DDOT": 0.0,
    "TLE_LINE1": "1 65184U 25175L   25315.22069575  .00007063  00000+0  49306-3 0  9996",
    "TLE_LINE2": "2 65184  97.6005 185.8766 0002280  92.1256 268.0232 15.05661199 14811",
    "COMMENT": "Grouped by shell and plane from TLE"
  },
  {
    "OBJECT_NAME": "STARLINK-34945",
    "OBJECT_ID": "25175M",
    "EPOCH": "2025-11-11T05:13:48.914400",
    "MEAN_MOTION": 15.05650944,
    "ECCENTRICITY": 0.0002005,
    "INCLINATION": 97.6014,
    "RA_OF_ASC_NODE": 185.8793,
    "ARG_OF_PERICENTER": 79.5491,
    "MEAN_ANOMALY": 280.5962,
    "EPHEMERIS_TYPE": 0,
    "CLASSIFICATION_TYPE": "U",
    "NORAD_CAT_ID": 65185,
    "ELEMENT_SET_NO": 999,
    "REV_AT_EPOCH": 1481,
    "BSTAR": 0.00088153,
    "MEAN_MOTION_DOT": 0.00012682,
    "MEAN_MOTION_DDOT": 0.0,
    "TLE_LINE1": "1 65185U 25175M   25315.21792725  .00012682  00000+0  88153-3 0  9992",
    "TLE_LINE2": "2 65185  97.6014 185.8793 0002005  79.5491 280.5962 15.05650944 14812",
    "COMMENT": "Grouped by shell and plane from TLE"
  },
  {
    "OBJECT_NAME": "STARLINK-34965",
    "OBJECT_ID": "25175N",
    "EPOCH": "2025-11-11T05:05:50.981568",
    "MEAN_MOTION": 15.05643373,
    "ECCENTRICITY": 0.000427,
    "INCLINATION": 97.6003,
    "RA_OF_ASC_NODE": 185.8883,
    "ARG_OF_PERICENTER": 65.8939,
    "MEAN_ANOMALY": 294.2734,
    "EPHEMERIS_TYPE": 0,
    "CLASSIFICATION_TYPE": "U",
    "NORAD_CAT_ID": 65186,
    "ELEMENT_SET_NO": 999,
    "REV_AT_EPOCH": 1481,
    "BSTAR": 0.00088851,
    "MEAN_MOTION_DOT": 0.00012782,
    "MEAN_MOTION_DDOT": 0.0,
    "TLE_LINE1": "1 65186U 25175N   25315.21239562  .00012782  00000+0  88851-3 0  9994",
    "TLE_LINE2": "2 65186  97.6003 185.8883 0004270  65.8939 294.2734 15.05643373 14819",
    "COMMENT": "Grouped by shell and plane from TLE"
  },
  {
    "OBJECT_NAME": "STARLINK-34915",
    "OBJECT_ID": "25175P",
    "EPOCH": "2025-11-11T05:09:49.981248",
    "MEAN_MOTION": 15.05660023,
    "ECCENTRICITY": 0.0003075,
    "INCLINATION": 97.6009,
    "RA_OF_ASC_NODE": 185.8834,
    "ARG_OF_PERICENTER": 80.2745,
    "MEAN_ANOMALY": 279.8829,
    "EPHEMERIS_TYPE": 0,
    "CLASSIFICATION_TYPE": "U",
    "NORAD_CAT_ID": 65187,
    "ELEMENT_SET_NO": 999,
    "REV_AT_EPOCH": 1481,
    "BSTAR": 0.0005967500000000001,
    "MEAN_MOTION_DOT": 8.563e-05,
    "MEAN_MOTION_DDOT": 0.0,
    "TLE_LINE1": "1 65187U 25175P   25315.21516182  .00008563  00000+0  59675-3 0  9995",
    "TLE_LINE2": "2 65187  97.6009 185.8834 0003075  80.2745 279.8829 15.05660023 14815",
    "COMMENT": "Grouped by shell and plane from TLE"
  }
]